REAL                    
1 64875U 25154G   26068.72233414  .00022901  00000+0  82904-3 0  9994
2 64875  97.4133 137.2581 0001853 118.5876 241.5550 15.28408058 34830
STARLINK-36102          
1 66849U 25281B   26068.66670139  .00042511  00000+0  15469-2 0  9990
2 66849  43.0042 343.8058 0001702 272.8951 305.2793 15.27548752  5777
